OBJECT_NAME,OBJECT_ID,EPOCH,MEAN_MOTION,ECCENTRICITY,INCLINATION,RA_OF_ASC_NODE,ARG_OF_PERICENTER,MEAN_ANOMALY,EPHEMERIS_TYPE,CLASSIFICATION_TYPE,NORAD_CAT_ID,ELEMENT_SET_NO,REV_AT_EPOCH,BSTAR,MEAN_MOTION_DOT,MEAN_MOTION_DDOT
HYLAS 2,2012-043B,2026-06-09T12:59:31.394976,1.00270694,.00027085,2.4065,81.1594,21.1959,277.8751,0,U,38741,999,5069,0,-.24E-5,0
INTELSAT 21 (IS-21),2012-045A,2026-06-09T11:21:01.340352,1.00267497,.00017059,0.0247,280.5498,177.4937,272.0574,0,U,38749,999,5044,0,-.268E-5,0
ASTRA 2F,2012-051A,2026-06-09T05:35:38.652000,1.00273649,.0001099,0.0427,255.9186,279.9544,193.8456,0,U,38778,999,4105,0,.167E-5,0
GSAT-10,2012-051B,2026-06-09T20:34:32.415168,1.00271265,.00079009,0.0156,289.5116,160.4511,199.9322,0,U,38779,999,5002,0,-.148E-5,0
INTELSAT 23 (IS-23),2012-057A,2026-06-09T19:55:44.289408,1.00268891,.0000137,0.0185,298.0077,112.6044,93.5378,0,U,38867,999,4988,0,-.267E-5,0
BEIDOU-2 G6,2012-059A,2026-06-09T22:04:53.590080,1.00274032,.00099985,4.4018,73.6015,325.1215,274.7988,0,U,38953,999,4983,0,-.16E-5,0
LUCH-5B,2012-061A,2026-06-09T16:06:40.001184,1.00273522,.00017895,10.4646,49.9541,136.7986,296.6675,0,U,38977,999,4953,0,-.125E-5,0
YAMAL 300K,2012-061B,2026-06-09T14:48:06.103584,1.00271710,.00013345,0.0118,275.2884,298.8556,88.8279,0,U,38978,999,4955,0,.88E-6,0
STAR ONE C3,2012-062A,2026-06-09T04:25:32.121984,1.00269174,.0002497,0.0177,10.8282,83.7039,154.4060,0,U,38991,999,4968,0,-.232E-5,0
EUTELSAT 21B,2012-062B,2026-06-09T16:51:41.340384,1.00271657,.00030473,0.0654,356.1981,79.1688,97.1969,0,U,38992,999,4975,0,.147E-5,0
ECHOSTAR 16,2012-065A,2026-06-09T19:53:22.016256,1.00270142,.00018966,0.0182,348.1456,91.0399,55.8619,0,U,39008,999,4957,0,-.265E-5,0
ZHONGXING-12,2012-067A,2026-06-09T06:54:20.405952,1.00270624,.000326,0.0507,97.0140,338.8292,12.9096,0,U,39017,999,4943,0,-.19E-5,0
EUTELSAT 70B,2012-069A,2026-06-09T20:31:02.750016,1.00271807,.00039924,0.0611,359.6371,71.7474,205.0859,0,U,39020,999,4943,0,-.26E-6,0
YAMAL 402,2012-070A,2026-06-09T18:43:55.092000,1.00272144,.00037534,1.2451,84.2519,350.8176,158.9600,0,U,39022,999,4932,0,.103E-5,0
SKYNET 5D,2012-075A,2026-06-09T11:52:42.154176,1.00273123,.00037624,0.0667,4.0078,83.1306,41.6950,0,U,39034,999,4908,0,.116E-5,0
MEXSAT 3,2012-075B,2026-06-09T16:12:49.428576,1.00268988,.00012632,0.0339,93.9095,339.7722,312.7650,0,U,39035,999,697,0,-.8E-7,0
TDRS 11,2013-004A,2026-06-09T17:38:23.070336,1.00266852,.00056345,3.5103,31.1434,16.8625,300.3697,0,U,39070,999,4661,0,.94E-6,0
AMAZONAS 3,2013-006A,2026-06-09T19:53:29.503680,1.00268073,.00022032,0.0427,241.1258,231.6761,22.7582,0,U,39078,999,4484,0,-.265E-5,0
AZERSPACE 1,2013-006B,2026-06-09T13:33:22.519008,1.00272426,.00014162,0.0151,314.8738,156.3528,36.0482,0,U,39079,999,4873,0,.15E-5,0
SBIRS GEO-2 (USA 241),2013-011A,2026-06-09T13:06:00.772992,1.00271350,.00021453,4.4739,52.5073,17.5559,334.5497,0,U,39120,999,4845,0,-.271E-5,0
EUTELSAT 117 WEST A,2013-012A,2026-06-09T07:41:39.636096,1.00272054,.00027506,0.0468,66.3574,16.0687,173.8873,0,U,39122,999,4835,0,.4E-7,0
ANIK G1,2013-014A,2026-06-09T16:14:56.726016,1.00271698,.00016177,0.0492,88.5736,343.4590,322.4518,0,U,39127,999,4817,0,-.57E-6,0
ZHONGXING-11,2013-020A,2026-06-09T22:24:48.089952,1.00272915,.00024307,0.0367,49.9386,23.6716,258.8162,0,U,39157,999,4782,0,-.273E-5,0
EUTELSAT 7B,2013-022A,2026-06-09T16:47:34.234656,1.00271431,.0004906,0.0698,13.3399,22.5139,121.1040,0,U,39163,999,4787,0,.65E-6,0
WGS F5 (USA 243),2013-024A,2026-06-08T23:23:57.306912,1.00274429,.00002413,0.0190,312.5891,61.7324,181.5264,0,U,39168,999,4709,0,-.268E-5,0
SES-6,2013-026A,2026-06-09T06:18:01.387584,1.00269746,.00026412,0.0202,325.5904,130.4883,215.5657,0,U,39172,999,4764,0,-.244E-5,0
IRNSS-1A,2013-034A,2026-05-22T20:37:38.469792,1.00280263,.00166187,35.6649,64.2334,185.3754,355.4646,0,U,39199,999,4711,0,.59E-6,0
MUOS-2,2013-036A,2026-06-09T14:42:25.293600,1.00271899,.00506832,4.9809,45.5245,177.8763,67.1233,0,U,39206,999,4711,0,.2E-7,0
ALPHASAT,2013-038A,2026-06-09T01:28:43.025376,1.00271496,.00019156,2.9977,1.3684,86.6359,216.4790,0,U,39215,999,4393,0,.149E-5,0
INSAT-3D,2013-038B,2026-06-09T19:05:12.569568,1.00273084,.00007316,1.9059,82.6340,316.1218,275.2297,0,U,39216,999,4700,0,-.322E-5,0
WGS F6 (USA 244),2013-041A,2026-06-09T17:49:44.481216,1.00270516,.00001423,0.0183,353.8203,296.1349,100.4253,0,U,39222,999,4598,0,.106E-5,0
ES'HAIL 1,2013-044A,2026-06-09T20:18:08.070336,1.00271412,.00022545,0.0493,7.3712,67.4460,153.4004,0,U,39233,999,4655,0,.16E-5,0
