HYLAS 2                 
1 38741U 12043B   26160.54133559 -.00000240  00000+0  00000+0 0  9998
2 38741   2.4065  81.1594 0002708  21.1959 277.8751  1.00270694 50690
INTELSAT 21 (IS-21)     
1 38749U 12045A   26160.47293218 -.00000268  00000+0  00000+0 0  9999
2 38749   0.0247 280.5498 0001705 177.4937 272.0574  1.00267497 50449
ASTRA 2F                
1 38778U 12051A   26160.23308625  .00000167  00000+0  00000+0 0  9998
2 38778   0.0427 255.9186 0001099 279.9544 193.8456  1.00273649 41051
GSAT-10                 
1 38779U 12051B   26160.85731962 -.00000148  00000+0  00000+0 0  9991
2 38779   0.0156 289.5116 0007900 160.4511 199.9322  1.00271265 50020
INTELSAT 23 (IS-23)     
1 38867U 12057A   26160.83037372 -.00000267  00000+0  00000+0 0  9999
2 38867   0.0185 298.0077 0000137 112.6044  93.5378  1.00268891 49889
BEIDOU-2 G6             
1 38953U 12059A   26160.92006470 -.00000160  00000+0  00000+0 0  9994
2 38953   4.4018  73.6015 0009998 325.1215 274.7988  1.00274032 49831
LUCH-5B                 
1 38977U 12061A   26160.67129631 -.00000125  00000+0  00000+0 0  9991
2 38977  10.4646  49.9541 0001789 136.7986 296.6675  1.00273522 49538
YAMAL 300K              
1 38978U 12061B   26160.61673731  .00000088  00000+0  00000+0 0  9998
2 38978   0.0118 275.2884 0001334 298.8556  88.8279  1.00271710 49551
STAR ONE C3             
1 38991U 12062A   26160.18439956 -.00000232  00000+0  00000+0 0  9997
2 38991   0.0177  10.8282 0002497  83.7039 154.4060  1.00269174 49687
EUTELSAT 21B            
1 38992U 12062B   26160.70256181  .00000147  00000+0  00000+0 0  9997
2 38992   0.0654 356.1981 0003047  79.1688  97.1969  1.00271657 49759
ECHOSTAR 16             
1 39008U 12065A   26160.82872704 -.00000265  00000+0  00000+0 0  9999
2 39008   0.0182 348.1456 0001896  91.0399  55.8619  1.00270142 49575
ZHONGXING-12            
1 39017U 12067A   26160.28773618 -.00000190  00000+0  00000+0 0  9992
2 39017   0.0507  97.0140 0003260 338.8292  12.9096  1.00270624 49430
EUTELSAT 70B            
1 39020U 12069A   26160.85489294 -.00000026  00000+0  00000+0 0  9993
2 39020   0.0611 359.6371 0003992  71.7474 205.0859  1.00271807 49436
YAMAL 402               
1 39022U 12070A   26160.78049875  .00000103  00000+0  00000+0 0  9991
2 39022   1.2451  84.2519 0003753 350.8176 158.9600  1.00272144 49326
SKYNET 5D               
1 39034U 12075A   26160.49493234  .00000116  00000+0  00000+0 0  9993
2 39034   0.0667   4.0078 0003762  83.1306  41.6950  1.00273123 49083
MEXSAT 3                
1 39035U 12075B   26160.67557209 -.00000008  00000+0  00000+0 0  9998
2 39035   0.0339  93.9095 0001263 339.7722 312.7650  1.00268988  6975
TDRS 11                 
1 39070U 13004A   26160.73498924  .00000094  00000+0  00000+0 0  9999
2 39070   3.5103  31.1434 0005634  16.8625 300.3697  1.00266852 46610
AMAZONAS 3              
1 39078U 13006A   26160.82881370 -.00000265  00000+0  00000+0 0  9991
2 39078   0.0427 241.1258 0002203 231.6761  22.7582  1.00268073 44841
AZERSPACE 1             
1 39079U 13006B   26160.56484397  .00000150  00000+0  00000+0 0  9993
2 39079   0.0151 314.8738 0001416 156.3528  36.0482  1.00272426 48732
SBIRS GEO-2 (USA 241)   
1 39120U 13011A   26160.54584228 -.00000271  00000+0  00000+0 0  9993
2 39120   4.4739  52.5073 0002145  17.5559 334.5497  1.00271350 48455
EUTELSAT 117 WEST A     
1 39122U 13012A   26160.32059764  .00000004  00000+0  00000+0 0  9997
2 39122   0.0468  66.3574 0002750  16.0687 173.8873  1.00272054 48358
ANIK G1                 
1 39127U 13014A   26160.67704544 -.00000057  00000+0  00000+0 0  9994
2 39127   0.0492  88.5736 0001617 343.4590 322.4518  1.00271698 48178
ZHONGXING-11            
1 39157U 13020A   26160.93388993 -.00000273  00000+0  00000+0 0  9999
2 39157   0.0367  49.9386 0002430  23.6716 258.8162  1.00272915 47826
EUTELSAT 7B             
1 39163U 13022A   26160.69970179  .00000065  00000+0  00000+0 0  9992
2 39163   0.0698  13.3399 0004906  22.5139 121.1040  1.00271431 47870
WGS F5 (USA 243)        
1 39168U 13024A   26159.97496883 -.00000268  00000+0  00000+0 0  9999
2 39168   0.0190 312.5891 0000241  61.7324 181.5264  1.00274429 47094
SES-6                   
1 39172U 13026A   26160.26251606 -.00000244  00000+0  00000+0 0  9996
2 39172   0.0202 325.5904 0002641 130.4883 215.5657  1.00269746 47643
IRNSS-1A                
1 39199U 13034A   26142.85947303  .00000059  00000+0  00000+0 0  9998
2 39199  35.6649  64.2334 0016618 185.3754 355.4646  1.00280263 47111
MUOS-2                  
1 39206U 13036A   26160.61279275  .00000002  00000+0  00000+0 0  9997
2 39206   4.9809  45.5245 0050683 177.8763  67.1233  1.00271899 47110
ALPHASAT                
1 39215U 13038A   26160.06160909  .00000149  00000+0  00000+0 0  9993
2 39215   2.9977   1.3684 0001915  86.6359 216.4790  1.00271496 43939
INSAT-3D                
1 39216U 13038B   26160.79528437 -.00000322  00000+0  00000+0 0  9992
2 39216   1.9059  82.6340 0000731 316.1218 275.2297  1.00273084 47003
WGS F6 (USA 244)        
1 39222U 13041A   26160.74287594  .00000106  00000+0  00000+0 0  9993
2 39222   0.0183 353.8203 0000142 296.1349 100.4253  1.00270516 45980
ES'HAIL 1               
1 39233U 13044A   26160.84592674  .00000160  00000+0  00000+0 0  9997
2 39233   0.0493   7.3712 0002254  67.4460 153.4004  1.00271412 46553
